{
  "dummyUsers":[
    {
      "uuid": "3521047a-cf6b-404a-a356-5ac920b1391d",
      "displayName": "lululing121+2",
      "points": 20,
      "postalCode": "M4S 0B5"
    },
    {
      "uuid": "722832ef-725c-4af6-a953-39d156421d5d",
      "displayName": "lululing121+1",
      "points": 0,
      "postalCode": "M4S 0B2"
    },
    {
      "uuid": "822a56e7-3c5f-4b90-89d1-7a14e3bc29b2",
      "displayName": "StarGazer92",
      "points": 85,
      "postalCode": "M4B 1R3"
    },
    {
      "uuid": "9e64f2d8-8a6b-49cd-af17-c0f78e9a3d76",
      "displayName": "TechNinja007",
      "points": 40,
      "postalCode": "M2N 7W3"
    },
    {
      "uuid": "6f0d8a92-5c34-4967-835e-27b19d3ecf22",
      "displayName": "LunaDreamer",
      "points": 75,
      "postalCode": "M5V 1V2"
    },
    {
      "uuid": "b7ca1490-eda6-4f78-af23-1b8c35d7e93a",
      "displayName": "CaptainAdventure",
      "points": 65,
      "postalCode": "M1P 4N7"
    },
    {
      "uuid": "3e84d192-5bca-4f67-9a4d-28ec7160f74a",
      "displayName": "MusicMaestro23",
      "points": 95,
      "postalCode": "M3H 2L3"
    },
    {
      "uuid": "6d72c8f3-1a59-4c86-8efb-d94b3e75a2c1",
      "displayName": "CoffeeLover88",
      "points": 60,
      "postalCode": "M6H 3G5"
    },
    {
      "uuid": "82b6f194-dc9e-4a7d-b5f1-631a8e29d4c5",
      "displayName": "NatureExplorer42",
      "points": 50,
      "postalCode": "M8Z 1R3"
    },
    {
      "uuid": "5a34b0e6-9cf7-47d1-8d52-1e63f24b9a7d",
      "displayName": "BookWorm55",
      "points": 30,
      "postalCode": "M4C 1T2"
    },
    {
      "uuid": "d5a1b9e8-c2f7-46d3-8fe5-7329f1a4e6d0",
      "displayName": "GalaxyTraveller",
      "points": 70,
      "postalCode": "M5S 1W8"
    },
    {
      "uuid": "4b0e1ad7-5fc6-47e8-8a52-16f93d2cbea4",
      "displayName": "SoccerFanatic77",
      "points": 55,
      "postalCode": "M1E 4Y5"
    },
    {
      "uuid": "7a6b3cf6-d03e-4b40-9e92-9f2c361ba39d",
      "displayName": "MusicLover45",
      "points": 80,
      "postalCode": "M3N 2X1"
    },
    {
      "uuid": "0e49c36b-8a3f-469c-91a7-d9e2c3b9a337",
      "displayName": "AdventureSeeker67",
      "points": 70,
      "postalCode": "M6A 5E4"
    },
    {
      "uuid": "9b3c6f4a-3d06-4c93-87e5-6b92c3d10e7f",
      "displayName": "NatureLover22",
      "points": 45,
      "postalCode": "M4H 3R8"
    },
    {
      "uuid": "4a2c1b3e-2a35-48e0-8f9a-1c7b3e0d2d8e",
      "displayName": "MovieBuff99",
      "points": 55,
      "postalCode": "M5K 1V7"
    },
    {
      "uuid": "1b2c3a9e-9c7f-4d09-8c21-6e9b3c4a3d28",
      "displayName": "TechGeek123",
      "points": 65,
      "postalCode": "M2P 3X5"
    }
  ]
}
